{"type":"Feature","properties":{"name":"Côte-des-Neiges–Notre-Dame-de-Grâce","source":"Ville de Montréal, limites administratives (WGS 84)","simplifiedTolerance":0.00004},"geometry":{"type":"MultiPolygon","coordinates":[[[[-73.6308197072959,45.4793451998588],[-73.6311682160767,45.4789670363981],[-73.6299237425901,45.4783653191456],[-73.6325592940619,45.4778828678813],[-73.6346359262828,45.4771929262537],[-73.6356689493653,45.4769722249839],[-73.6379551422451,45.4768524454788],[-73.6393229781674,45.4768628504914],[-73.6396069433533,45.4768039876261],[-73.6431197395997,45.4746029320189],[-73.6444597314273,45.4739669579611],[-73.6443901201106,45.473937168332],[-73.6459221991156,45.4732764258199],[-73.6458873447767,45.4730912105757],[-73.6493345374205,45.4703348731151],[-73.6494534142936,45.4703819767711],[-73.6503483488656,45.4687325770908],[-73.65221382354,45.4676262892284],[-73.6532318213624,45.4662922035261],[-73.6533076472059,45.466314580009],[-73.6557591256317,45.4629546417159],[-73.6574711667794,45.4619998954655],[-73.6574028737336,45.4619722904227],[-73.6582725912966,45.4614543959115],[-73.6577133921716,45.4612500414331],[-73.6577127378655,45.4611566199412],[-73.6575824016655,45.4609853721511],[-73.6577507395077,45.460808498392],[-73.6577211352176,45.460645289427],[-73.6575611419277,45.4605207748495],[-73.6572753505934,45.4604588424051],[-73.6572931179189,45.4602104773839],[-73.6572035497195,45.4601354515247],[-73.6575505275379,45.4599367896377],[-73.657562355828,45.4597427746804],[-73.6576202396609,45.4596847588843],[-73.6580951913317,45.4597052058],[-73.6583160027664,45.4598270716987],[-73.6584428590196,45.4597106306997],[-73.6352955068789,45.4507759092005],[-73.6314600498003,45.4527581001285],[-73.6262048084505,45.4574909526417],[-73.6243247780966,45.4586589534492],[-73.6199617859412,45.4617499452656],[-73.6197927717374,45.4616749873137],[-73.6182277975797,45.4622300002838],[-73.6121179363504,45.4648862123855],[-73.6118169731718,45.4649172011952],[-73.6116069916924,45.4647641575582],[-73.608266175196,45.4662881926791],[-73.6072010784985,45.4666632235894],[-73.6066070643036,45.467054268324],[-73.6058459889443,45.4672872638034],[-73.6056279954017,45.4676032496421],[-73.6031689877313,45.4691032733472],[-73.6025899905085,45.4690512511881],[-73.6012719054178,45.470054219405],[-73.5993759384349,45.4717291830813],[-73.599088955604,45.471881251852],[-73.5988839321332,45.4720902110631],[-73.596484960264,45.4733167775831],[-73.5951279611999,45.4764509942226],[-73.5984733764263,45.474103127492],[-73.6049973226213,45.4770172424421],[-73.6054047381558,45.4765725064802],[-73.6143755563175,45.4806218878416],[-73.6123776420159,45.4826069332136],[-73.6172175896392,45.4847889588706],[-73.6152917450613,45.4867885325615],[-73.6184234348839,45.4882108721713],[-73.6183176970008,45.4886711155609],[-73.618408247699,45.4889763715839],[-73.6147569062407,45.4930302132942],[-73.6116053156141,45.4917142197949],[-73.610463274068,45.4928600967403],[-73.6093997348817,45.4940537833871],[-73.608385648444,45.4936659144497],[-73.6073995015641,45.4945705876225],[-73.6068419458715,45.4952738765999],[-73.6054722285598,45.4949010480625],[-73.6023727626983,45.4979898655475],[-73.5991202207731,45.5008556664188],[-73.5972281787653,45.5019516119794],[-73.5949198616156,45.5027964698559],[-73.5943161107426,45.5031982511947],[-73.594002749357,45.5035324549747],[-73.598973759654,45.505798680408],[-73.5990692428403,45.505695115737],[-73.599298350568,45.5057995542698],[-73.5995617815659,45.5055797862182],[-73.6022563602561,45.5067965695233],[-73.603298330721,45.505663438541],[-73.6061782083729,45.5069908337916],[-73.6063617703048,45.5075203090199],[-73.6130508731581,45.5104609698047],[-73.6182587084453,45.5047000400389],[-73.6189537329993,45.5051084920126],[-73.616036437714,45.5083598097489],[-73.6179200289061,45.5091911751166],[-73.6169266704416,45.5102847573189],[-73.6188763077909,45.5111436581831],[-73.6176425138471,45.5125075760862],[-73.6266746408732,45.5165588989696],[-73.6277252516336,45.5153046521345],[-73.6289017345902,45.5140524766317],[-73.6292158570625,45.5141055758095],[-73.6308251598235,45.514652318086],[-73.6313462411882,45.5147022175612],[-73.6346440471152,45.5156549953259],[-73.6358925719665,45.5141824259236],[-73.6366469955437,45.5143998780664],[-73.638522837322,45.5111821791555],[-73.6416658472238,45.507544614635],[-73.6418676724279,45.507188025696],[-73.6415391358478,45.5070193568948],[-73.6422892158973,45.5061826919163],[-73.6422398655787,45.5054563677164],[-73.6457335783484,45.5015988828026],[-73.6515988664495,45.5043070399838],[-73.6563924696114,45.5037244321616],[-73.6599717485581,45.504704865209],[-73.6600536215642,45.5033152840754],[-73.6605785557478,45.5024310183028],[-73.6624488399855,45.5022089448118],[-73.6617503774446,45.4992200874714],[-73.663719245513,45.4991145079565],[-73.6561795940075,45.4943312601545],[-73.6658600658179,45.486758659583],[-73.6680415376604,45.4868107403221],[-73.675134823375,45.4912666941739],[-73.6772119965759,45.483689462456],[-73.6746354172564,45.4819611383445],[-73.669756107572,45.4837141870182],[-73.6618054047795,45.4802386979984],[-73.6609696470971,45.4811517643718],[-73.6559628471972,45.4789611509044],[-73.6559824954046,45.4846964858178],[-73.6558156090433,45.4857254384933],[-73.6554563188024,45.486725431682],[-73.6557920514672,45.4868762787764],[-73.6505350211935,45.4926836733542],[-73.6485590074254,45.4918690799778],[-73.6511635868918,45.4889846207765],[-73.6304022819319,45.4796467478868],[-73.6307210934361,45.4793008657194],[-73.6308197072959,45.4793451998588]]]]}}